IRIDIUM 39              
1 25042U 97069D   25092.45057677  .00001726  00000+0  44872-3 0  9996
2 25042  86.3891 243.5857 0017403 193.6071 166.4666 14.49065309437994
IRIDIUM 38              
1 25043U 97069E   25092.88183707  .00000994  00000+0  32228-3 0  9996
2 25043  86.3903 264.8422 0002385  40.9322 319.2054 14.38014021435393
IRIDIUM 42              
1 25077U 97077A   25092.86539302  .00000889  00000+0  29799-3 0  9998
2 25077  86.3902 270.9322 0002222  71.6479 288.4960 14.36257051430387
IRIDIUM 44              
1 25078U 97077B   25092.88413516  .00001025  00000+0  31839-3 0  9990
2 25078  86.3920 253.0295 0000240  54.3334 305.7887 14.40145384432894
IRIDIUM 45              
1 25104U 97082A   25092.45308106  .00028290  00000+0  11098-2 0  9994
2 25104  86.3552  84.5821 0120928 254.2078 104.5804 15.18982612440532
IRIDIUM 24              
1 25105U 97082B   25092.81492849  .00000868  00000+0  25858-3 0  9994
2 25105  86.3861 112.2827 0010287 338.3235  21.7528 14.41987087432604
IRIDIUM 51              
1 25262U 98018A   25092.49992555  .00040305  00000+0  10628-2 0  9999
2 25262  86.3810  93.1407 0098590 177.7764 182.3947 15.33417343435627
IRIDIUM 57              
1 25273U 98019B   25092.76897012  .00000652  00000+0  21853-3 0  9998
2 25273  86.4032 176.8377 0002141  93.2353 266.9088 14.35822853414173
